#dP2021  7 20 18  0  0.00000000      96 __u+U ITR00 EXT  IAC
## 2167 237600.00000000   900.00000000 59415 0.7500000000000
+  117   C06C07C08C09C10C11C12C13C14C16C19C20C21C22C23C24C25
+        C26C27C28C29C30C32C33C34C35C36C37C38C39C40C41C42C43
+        C44C45C46E01E02E03E04E05E07E08E09E11E12E13E14E15E18
+        E19E21E24E25E26E27E30E31E33E36G01G02G03G04G05G06G07
+        G08G09G10G11G12G13G14G15G16G17G18G19G20G21G22G23G24
+        G25G26G27G28G29G30G31G32J01J02J03R01R02R03R04R05R07
+        R08R09R11R12R13R14R15R16R17R18R19R20R21R22R24  0  0
++        10 12 10  9  8  9  8 10 12 10  8  8  7  8  9  8  8
++         8  9  8  8  9  9  8 10  8  8  9 10 10 10  9  8  7
++         9  9  8  7  9  9  8  8  8  8  8  8  8  9  9  9  8
++         8  8  7  8  9  9  8  8  8  8  8  7  8  8  8  8  7
++         7  8  9 10  7  8  8  7  9  8  7  8  8  7  7  7  8
++         7  7  9  7  7  8  8  8 10 10  8  8  8  8  8  9  9
++         8 10  8  9  8  8  8  8  8 10  8  9 10  8  8  0  0
%c M  cc GPS ccc cccc cccc cccc cccc ccccc ccccc ccccc ccccc
%c cc cc ccc ccc cccc cccc cccc cccc ccccc ccccc ccccc ccccc
%f  0.0000000  0.000000000  0.00000000000  0.000000000000000
%f  0.0000000  0.000000000  0.00000000000  0.000000000000000
%i    0    0    0    0      0      0      0      0         0
%i    0    0    0    0      0      0      0      0         0
/* IAC                                ULTRA-RAPID PREDICTION
/* S/V CLOCKS ARE ALIGNED TO GNSS TIME                      
/* G:C1WC2W R:C1PC2P E:C1XC5X C:C2IC6I J:C1CC2S             
/* PCV:IGS14_2163 OL/AL:FES2004  NONE     YN ORB:CoN CLK:CoN
*  2021 07 21  8 15  0.00000000
PC06 -19125.228289  37887.985746    529.269699    651.918221
PC07  -7499.285056  28699.218733 -29482.795559     98.330248
PC08 -20262.452057  20046.005182  31029.888430   -907.509612
PC09  -9784.171431  38684.376750 -13988.584104    357.778730
PC10   4408.759747  34604.940750 -23110.187445    -16.568909
PC11   8053.732352 -25001.637448  -9437.200902    470.212201
PC12  18008.163709 -19738.177463   8127.462868    805.152786
PC13  -5782.187880  22993.377987  34929.193533    344.453744
PC14  -2713.096678 -24005.093181 -13998.344299    787.858090
PC16 -17153.407753  38603.830371  -1771.719703   -905.852124
PC19  10354.249032  25318.872299   5487.782306    916.974684
PC20  -3938.374003  19748.066862  19319.500907   -839.231003
PC21  16616.993816  -2054.070877 -22304.417924   -936.298264
PC22  19095.987264  16377.902437 -12040.856398   -948.485699
PC23 -24209.730573  -8219.264016  11201.315587   -967.456295
PC24  14461.754809 -13831.512927  19459.452190   -949.804023
PC25  -8158.071624 -15421.676360  21775.930035   -882.611885
PC26  26635.652940  -5165.587472   6598.024174    875.761538
PC27 -19788.854147  11914.417863 -15691.248674    567.844797
PC28 -14040.518155  -7417.446998 -22949.218532    -48.076122
PC29    938.826799  22329.646446  16698.183878    422.405778
PC30 -13318.041101  24533.531885    202.403844    474.782074
PC32 -16654.901826   2130.196017  22305.951650   -925.484569
PC33 -10471.539253 -25283.134412  -5516.357330   -945.466627
PC34  12880.119133 -24724.861367  -1000.338148   -623.259525
PC35  14121.715876   7368.469961  22902.247242   -177.235394
PC36   7389.286851  15654.619020 -21855.061233   -734.764338
PC37 -27017.116886   3935.499978  -5712.148144   -863.813321
PC38 -18483.696185  22626.586585  30348.571444    163.156151
PC39 -14044.814806  39773.073322  -2348.080982     32.522190
PC40    526.961102  32089.759252 -27237.902268    182.589399
PC41 -19142.132892 -16559.741955  11799.215715   -963.639542
PC42   4532.559784 -19263.809869 -19640.412874   -921.850944
PC43   -489.098095 -22646.386175 -16297.978635   -831.124804
PC44  19428.851277 -12339.918506  15746.195721    300.279696
PC45  24332.313620   8005.534193 -11080.346580    499.184923
PC46 -13286.493252  14114.266612 -20050.170626    169.166509
PE01  27243.436132   9853.742174   6077.440119  -1154.628534
PE02 -27242.025790  -9763.910587  -6193.051111    234.388632
PE03 -16816.430408  -6854.279843  23379.677367   -454.984106
PE04  14247.765938 -15265.437857 -20972.664988   -817.883663
PE05  -9543.408937 -25284.197286  12086.411577   -263.529803
PE07  -3218.439710  28772.779761   6135.638101   -564.212130
PE08 -13929.458747  15653.493507  20905.280274   5966.950248
PE09   2910.587739 -28854.921218  -5966.526916   5593.240324
PE11  11469.865413 -20934.691266 -17511.866982   5690.249946
PE12  25123.963652 -15626.537246    596.267965   5100.446698
PE13 -11879.578873  20950.594596  17205.622871    419.290417
PE14 -20254.927505  -2039.623402 -24562.201433  -1507.664843
PE15 -25072.836818  15723.112203   -583.925423    802.340904
PE18  15915.729753 -10180.071632  16165.037139  -1652.586786
PE19  16311.986099   9460.093051 -22808.151443    332.190597
PE21  19216.667364  19166.566191 -11805.161678   -677.443484
PE24   1405.539723 -17539.539308  23794.083389  -1019.429407
PE25 -19044.041397 -19227.609911  12004.959017   -540.673676
PE26   9198.863483  13438.286324  24712.964371   1554.577200
PE27   -292.795928  17859.201098 -23595.729038    -80.330512
PE30 -20315.589614   5201.893117 -20888.889478   2766.819133
PE31  19490.619584  -6073.616632  21445.354242   -483.493695
PE33  23472.285375  -1251.443099  17984.919078   -467.387258
PE36  -8278.856197 -13834.605586 -24828.257180   -237.359261
PG01   1849.845240 -15949.497636 -21359.941834    621.768645
PG02 -21469.708785  14899.453980   5574.599165   -621.049672
PG03  -6564.293092 -19687.996164 -16730.762355   -227.269424
PG04    121.856328 -25793.835384   6204.728872   -202.761280
PG05  -5409.733340  14620.237586  21326.312552    -48.571180
PG06 -25255.735640   6138.840536  -5559.856305     43.270826
PG07 -14050.313784 -10236.948293  20571.424232    207.303679
PG08   6301.234104 -25208.147647   4629.515798    -29.597550
PG09  -8617.775288 -19754.044441  15447.092503   -356.259189
PG10  22983.519945  10348.614972  -8686.814522   -166.316400
PG11 -23365.306497  11571.941388   5035.369237     20.410531
PG12   4701.584404  19998.996847 -17159.954694    -71.603738
PG13 -13112.258167  20490.043205  10353.116668    160.513318
PG14 -22522.213627 -10663.026356  -9261.771767     42.328684
PG15  -3379.735279  25825.432837   3764.028656   -134.041908
PG16  12336.549763  -8638.838058  21665.380734   -360.577392
PG17 -13473.716349  -6195.506738 -21606.867474    477.070221
PG18  16062.490990   8247.932343  19491.185900    339.419007
PG19 -15681.166115   3596.719390 -21387.358301     29.103086
PG20 -16265.489422   7244.986224  19597.563818    520.067209
PG21   9921.801800 -17632.207953 -16233.838080    132.543394
PG22    714.464029 -17111.063253 -20167.687331   -558.263530
PG23  20365.855785  16959.451529   2172.590394     81.678311
PG24  -6004.490533  18163.516175 -18514.031528    181.975825
PG25  15397.590634  19970.665016  -9020.538740    177.239728
PG26  20368.412267   -802.742042  17109.886379    113.138708
PG27  12032.204325 -18965.467046  13702.445365   -166.178044
PG28 -21063.192871  -6782.793754 -14001.087636    534.139382
PG29   5442.453747  21327.495063  14770.922041   -383.618621
PG30 -23228.200213  -1552.554401  13069.900333   -453.234583
PG31  25676.579168  -6840.373178  -3675.897704   -129.831796
PG32  15032.928256   2518.590769 -21637.857921     12.875040
PJ01 -25780.823951  24095.359694  28065.931816   -420.431396
PJ02 -28238.844533  14589.464341 -23191.920395     -0.935756
PJ03 -25012.048130  33152.060821  -2286.157555     -0.276641
PR01 -12084.329628  -1490.355545  22418.884524     82.604468
PR02  -2515.004535  18292.325156  17670.943671    486.849894
PR03   7421.845499  24335.551760   2231.072058     39.881666
PR04  12909.602575  16685.215641 -14316.000719     96.730685
PR05  11264.120286   -178.132837 -22875.473015     75.710425
PR07  -7763.626083 -24230.055131  -1422.121815    -41.959615
PR08 -13045.425285 -16518.101532  14450.567459    -60.039407
PR09  10555.894543  -8906.308575  21449.883622      3.991011
PR11 -22497.915553  -8107.809456   8912.938559     44.747631
PR12 -23728.868929    175.066701  -9307.342053    247.054368
PR13 -11362.630795   8358.934511 -21263.116625    -58.007920
PR14   8534.536376  11812.054216 -20912.684402     66.723101
PR15  22662.719927   8234.254995  -8289.321762    102.563424
PR16  23357.964728  -1371.617273  10292.657223    -18.247242
PR17  -3756.785776  17166.517801  18470.798582    442.893955
PR18   9378.945681   5088.727739  23172.901978     84.169672
PR19  17714.907194  -8595.722195  16213.635834   -152.338754
PR20  16300.695705 -19406.721703  -2713.905523    -52.830380
PR21   2902.325300 -16509.430787 -19247.051222   -225.479354
PR22 -10123.668148  -4112.492727 -23077.545727   -123.755874
PR24 -15600.850617  19878.029227   3422.963279     51.315328
EOF
